<?xml version="1.0" encoding="UTF-8"?>
<kml xmlns="http://www.opengis.net/kml/2.2" xmlns:gx="http://www.google.com/kml/ext/2.2" xmlns:kml="http://www.opengis.net/kml/2.2" xmlns:atom="http://www.w3.org/2005/Atom">
<Document>
	<name>TSJ DPWS C06SUB22.kml</name>
	<Schema name="8_1_2024_6800638" id="8_1_2024_6800638">
		<SimpleField type="string" name="Jamshedpur"></SimpleField>
	</Schema>
	<Style id="style00">
		<LineStyle>
			<color>ffff0000</color>
			<width>2</width>
		</LineStyle>
		<PolyStyle>
			<color>33ff0055</color>
		</PolyStyle>
	</Style>
	<Style id="style12">
		<LineStyle>
			<color>ffff0000</color>
			<width>2</width>
		</LineStyle>
		<PolyStyle>
			<color>33ff0055</color>
		</PolyStyle>
	</Style>
	<StyleMap id="stylemap_id1003">
		<Pair>
			<key>normal</key>
			<styleUrl>#style00</styleUrl>
		</Pair>
		<Pair>
			<key>highlight</key>
			<styleUrl>#style12</styleUrl>
		</Pair>
	</StyleMap>
	<Placemark>
		<name>TSJ DPWS C06SUB22</name>
		<visibility>0</visibility>
		<styleUrl>#stylemap_id1003</styleUrl>
		<ExtendedData>
			<SchemaData schemaUrl="#8_1_2024_6800638">
				<SimpleData name="Jamshedpur">message</SimpleData>
			</SchemaData>
		</ExtendedData>
		<Polygon>
			<outerBoundaryIs>
				<LinearRing>
					<coordinates>
						86.22009161711701,22.775287912794,0 86.215842998037,22.77717618794,0 86.21301058531699,22.777562426038,0 86.212924754629,22.778935717054,0 86.210435664663,22.779536531873,0 86.209963595876,22.778463648267,0 86.207646167287,22.77889280171,0 86.207302844534,22.781896875806,0 86.208289897451,22.782583521314,0 86.20841864348399,22.786703394361,0 86.206873691091,22.787647531934,0 86.2049425006,22.788119600721,0 86.205071246633,22.79155282826,0 86.20695683957,22.79264855955,0 86.20680663586499,22.794096952419,0 86.20564792157001,22.794386630992,0 86.20513293744,22.794515377025,0 86.205009555825,22.793796545009,0 86.204977369316,22.793340569478,0 86.203775739677,22.793683892232,0 86.201887464531,22.794413453084,0 86.200803852091,22.794595843296,0 86.19983825684599,22.793855553608,0 86.19717750550301,22.796258812885,0 86.194355821619,22.796087151508,0 86.192242240916,22.798136359196,0 86.192092037211,22.798297291736,0 86.189012861262,22.798190003376,0 86.18763957024601,22.798147088032,0 86.18699584008201,22.798114901523,0 86.18634674550199,22.796323185902,0 86.18355724812599,22.795121556263,0 86.18261311055301,22.793362027149,0 86.181583142291,22.791859990101,0 86.18033859730799,22.790443783741,0 86.17952320576801,22.791945820789,0 86.178621983539,22.791001683216,0 86.176991200458,22.792289143543,0 86.172914242755,22.792417889576,0 86.17098305226401,22.789628392201,0 86.171090340623,22.78769720171,0 86.17063972950901,22.786152249318,0 86.169588303575,22.785401230793,0 86.168043351183,22.78546560381,0 86.16785023213301,22.783534413319,0 86.16514656544599,22.783706074696,0 86.16527531147899,22.784435635548,0 86.164352631578,22.784650212269,0 86.16413805485701,22.78546560381,0 86.163429951677,22.785508519154,0 86.163236832628,22.784564381581,0 86.160511708269,22.784714585286,0 86.16036150456399,22.7829335985,0 86.16134855748101,22.782869225483,0 86.16111252308799,22.778620606404,0 86.158387398729,22.778663521748,0 86.15830156803899,22.778856640796,0 86.15830156803899,22.777912503223,0 86.157314515122,22.77778375719,0 86.157271599777,22.777011280994,0 86.155469155319,22.777182942371,0 86.155469155319,22.776195889454,0 86.151649689682,22.776410466175,0 86.151649689682,22.777182942371,0 86.146070694931,22.777526265125,0 86.14585611821001,22.776710873585,0 86.145126557358,22.776882534961,0 86.144997811325,22.777483349781,0 86.14413950444001,22.777483349781,0 86.143967843064,22.77838457201,0 86.143238282211,22.778470402698,0 86.142465806015,22.780315762501,0 86.142465806015,22.781002408008,0 86.141779160507,22.781045323353,0 86.14160749913,22.782075291614,0 86.13967630864001,22.782161122303,0 86.139719223984,22.782847767811,0 86.138775086411,22.783019429188,0 86.136715149887,22.781174069385,0 86.134526467333,22.779929524402,0 86.132724022875,22.782289868336,0 86.132337784776,22.783319836597,0 86.129247879991,22.783234005909,0 86.125471329698,22.78203237627,0 86.122338509569,22.784478550892,0 86.118948197374,22.784221058826,0 86.11465666295,22.786967640857,0 86.11465666295,22.789585476856,0 86.115643715868,22.79022920702,0 86.11645910740801,22.796022778493,0 86.115600800523,22.799713498097,0 86.11684534550599,22.802159672719,0 86.116931176195,22.803661709767,0 86.114742493639,22.80409086321,0 86.11454937459,22.810613995535,0 86.11231777669001,22.810613995535,0 86.109313702593,22.810184842093,0 86.106910443316,22.812695389731,0 86.104657387743,22.81318891619,0 86.10240433217101,22.815592175467,0 86.097318863878,22.817265873892,0 86.09710428715699,22.819197064383,0 86.093542313585,22.821643239005,0 86.09337065220799,22.821986561759,0 86.093456482897,22.824690228446,0 86.091224884997,22.824604397757,0 86.08787748814601,22.830312138541,0 86.07991669178899,22.829657679542,0 86.06993887425401,22.821353560432,0 86.071784234056,22.820516711219,0 86.069895958909,22.820666914924,0 86.068951821336,22.820645457252,0 86.066612935075,22.820709830268,0 86.06352303028901,22.825173026069,0 86.058716511735,22.831009512885,0 86.056999897965,22.829292899116,0 86.047043538102,22.825859671577,0 86.03846046925401,22.827232962592,0 86.03468391896099,22.826546317085,0 86.02610085011401,22.822426444038,0 86.01442787648099,22.822769766792,0 86.00996468068,22.829292899116,0 86.00206825734,22.82963622187,0 85.994171834,22.829979544624,0 85.99073860646099,22.825173026069,0 85.983185505875,22.82963622187,0 85.98043892384401,22.833756094917,0 85.975289082535,22.838562613471,0 85.96327278614901,22.836502676948,0 85.947136616715,22.836159354194,0 85.937180256852,22.834786063178,0 85.937180256852,22.838219290717,0 85.931000447282,22.840622549995,0 85.93031380177401,22.846115714057,0 85.92997047902,22.855042105659,0 85.936836934098,22.855042105659,0 85.94988319874599,22.856415396674,0 85.96155617237901,22.859161978706,0 85.97357246876599,22.860878592475,0 85.98352882862901,22.86568511103,0 85.99073860646099,22.867058402046,0 85.99073860646099,22.870491629585,0 85.98799202443,22.875984793647,0 85.994858479508,22.878388052924,0 86.00653145314099,22.882507925971,0 86.02369759083599,22.886971121772,0 86.033997273453,22.889374381049,0 86.04258034230099,22.892120963081,0 86.05665657521099,22.894524222358,0 86.064209675797,22.894180899604,0 86.070389485368,22.896240836128,0 86.07313606739901,22.900704031928,0 86.07313606739901,22.909973746284,0 86.071762776383,22.918213492378,0 86.077942585953,22.935379630073,0 86.092362141618,22.935379630073,0 86.11158821583599,22.933319693549,0 86.12429115773099,22.93160307978,0 86.149010396012,22.927826529487,0 86.153473591813,22.924736624702,0 86.161713337907,22.922676688178,0 86.166176533707,22.916840201362,0 86.175446248063,22.911003714546,0 86.17990944386401,22.905510550483,0 86.18231270314099,22.897614127143,0 86.19398567677401,22.89555419062,0 86.19810554982099,22.895210867866,0 86.20600197316,22.894180899604,0 86.211495137223,22.892464285835,0 86.21527168751599,22.892464285835,0 86.217674946793,22.90963042353,0 86.22934792042599,22.919586783393,0 86.23724434376599,22.922676688178,0 86.247544026383,22.934006339057,0 86.253723835953,22.930573111518,0 86.25921700001599,22.931259757026,0 86.262650227555,22.933319693549,0 86.27363655568,22.930916434272,0 86.28153297902,22.928169852241,0 86.28496620655901,22.928169852241,0 86.288399434098,22.926109915717,0 86.29423592091401,22.919930106147,0 86.297669148453,22.920273428901,0 86.304192280778,22.916153555854,0 86.308998799332,22.916496878608,0 86.314491963395,22.913750296577,0 86.318268513688,22.913750296577,0 86.32410500050401,22.914436942085,0 86.326851582535,22.916153555854,0 86.32994148732099,22.911003714546,0 86.33612129689099,22.910317069038,0 86.33955452443,22.909287100776,0 86.337494587907,22.900704031928,0 86.337494587907,22.897270804389,0 86.354317402848,22.889031058296,0 86.35088417530901,22.886971121772,0 86.352257466325,22.878731375678,0 86.34745094777,22.878731375678,0 86.33955452443,22.869461661323,0 86.338867878922,22.866028433784,0 86.33509132862901,22.865341788276,0 86.32822487355099,22.866715079292,0 86.329598164567,22.86396849726,0 86.326164937028,22.86396849726,0 86.319641804703,22.861565237983,0 86.31140205861,22.859161978706,0 86.312775349625,22.856072073921,0 86.315521931657,22.851265555366,0 86.315521931657,22.846802359565,0 86.30625221730099,22.839935904487,0 86.29904243946901,22.839249258979,0 86.29698250294599,22.832382803901,0 86.293205952653,22.8279196081,0 86.293549275407,22.822769766792,0 86.28805611134401,22.811783438667,0 86.284622883805,22.811440115913,0 86.280503010758,22.798393851264,0 86.278443074235,22.794273978217,0 86.276039814957,22.790497427924,0 86.270546650895,22.788094168647,0 86.266426777848,22.786377554878,0 86.25990364552401,22.785347586616,0 86.25956032277,22.777107840522,0 86.257843709,22.765091544135,0 86.250977253922,22.764404898628,0 86.246857380875,22.76543486689,0 86.24342415333599,22.764748221382,0 86.241879200943,22.768696433052,0 86.239132618912,22.768696433052,0 86.23741600514199,22.766979819283,0 86.234841084487,22.76766646479,0 86.231150364882,22.767923956856,0 86.23072121144,22.768782263741,0 86.230206227309,22.76715148066,0 86.227373814589,22.767408972725,0 86.226858830458,22.768009787544,0 86.224970555312,22.767923956856,0 86.223854756362,22.767494803413,0 86.223854756362,22.76895392511801,0 86.222567296035,22.770069724068,0 86.21990654469199,22.770069724068,0 
					</coordinates>
				</LinearRing>
			</outerBoundaryIs>
		</Polygon>
		<atom:link rel="app" href="https://www.google.com/earth/about/versions/#earth-pro" title="Google Earth Pro 7.3.6.10201"></atom:link>
	</Placemark>
</Document>
</kml>
