<?xml version="1.0" encoding="UTF-8"?>
<kml xmlns="http://www.opengis.net/kml/2.2" xmlns:gx="http://www.google.com/kml/ext/2.2" xmlns:kml="http://www.opengis.net/kml/2.2" xmlns:atom="http://www.w3.org/2005/Atom">
<Document>
	<name>TSJ.kml</name>
	<StyleMap id="msn_ylw-pushpin00000">
		<Pair>
			<key>normal</key>
			<styleUrl>#sn_ylw-pushpin0000</styleUrl>
		</Pair>
		<Pair>
			<key>highlight</key>
			<styleUrl>#sh_ylw-pushpin00000</styleUrl>
		</Pair>
	</StyleMap>
	<Style id="sh_ylw-pushpin00000">
		<IconStyle>
			<scale>1.3</scale>
			<Icon>
				<href>http://maps.google.com/mapfiles/kml/pushpin/ylw-pushpin.png</href>
			</Icon>
			<hotSpot x="20" y="2" xunits="pixels" yunits="pixels"/>
		</IconStyle>
		<LineStyle>
			<color>ff00ff00</color>
			<width>5</width>
		</LineStyle>
		<PolyStyle>
			<color>ff89ff45</color>
			<fill>0</fill>
		</PolyStyle>
	</Style>
	<Style id="sn_ylw-pushpin0000">
		<IconStyle>
			<scale>1.1</scale>
			<Icon>
				<href>http://maps.google.com/mapfiles/kml/pushpin/ylw-pushpin.png</href>
			</Icon>
			<hotSpot x="20" y="2" xunits="pixels" yunits="pixels"/>
		</IconStyle>
		<LineStyle>
			<color>ff00ff00</color>
			<width>5</width>
		</LineStyle>
		<PolyStyle>
			<color>ff89ff45</color>
			<fill>0</fill>
		</PolyStyle>
	</Style>
	<Placemark>
		<name>Plant Boundary</name>
		<LookAt>
			<longitude>86.19827049234415</longitude>
			<latitude>22.78390079903478</latitude>
			<altitude>0</altitude>
			<heading>-0.009457689152340189</heading>
			<tilt>5.876652244897444</tilt>
			<range>5318.764800925446</range>
			<gx:altitudeMode>relativeToSeaFloor</gx:altitudeMode>
		</LookAt>
		<styleUrl>#msn_ylw-pushpin00000</styleUrl>
		<Polygon>
			<tessellate>1</tessellate>
			<outerBoundaryIs>
				<LinearRing>
					<coordinates>
						86.18473678791304,22.79648623701133,0 86.18464505122095,22.7964947148313,0 86.18466372387709,22.79562192902652,0 86.18466410386446,22.7949195624981,0 86.18469061207705,22.79477569232938,0 86.18474488428329,22.79473733836405,0 86.18496970734161,22.79474790544063,0 86.18509199879043,22.79468198266168,0 86.18510003915436,22.79452456396536,0 86.18580471247955,22.79415906678354,0 86.18632379803374,22.79413930801618,0 86.18655961414818,22.79397198940093,0 86.18765659238134,22.79329052648001,0 86.18755881784178,22.79324636964027,0 86.18757240674117,22.79291256595669,0 86.18758658385984,22.79285357188704,0 86.18743614686565,22.79285789655061,0 86.1874450400295,22.79259296609222,0 86.18751725732334,22.79253348854981,0 86.18751848152603,22.79209545802896,0 86.18762586516887,22.79208832312874,0 86.18760512863415,22.79190548550505,0 86.18746704954488,22.79121560955387,0 86.18726792828923,22.7909198689561,0 86.1859983509685,22.79090084345663,0 86.18602411597271,22.79109455101216,0 86.18553845873188,22.79109481086376,0 86.18552107104871,22.7910447790492,0 86.18529251968242,22.79104575192515,0 86.18529838937418,22.79101294585026,0 86.18494202531186,22.79101857358044,0 86.18494832547493,22.79106421292011,0 86.18424329301274,22.7910543060589,0 86.18430652981428,22.78934050283089,0 86.18528938538959,22.78935646420483,0 86.18539235997987,22.7894376019843,0 86.18539080305672,22.78955399220086,0 86.18552302628403,22.7895551053883,0 86.18553179546564,22.78942312846796,0 86.18654008096368,22.78944464911455,0 86.18496206581021,22.7872130553136,0 86.18493428268394,22.78614824175185,0 86.18488794153085,22.78584174878873,0 86.18448119673457,22.78595369066158,0 86.18429653609294,22.78577779651303,0 86.18427946990025,22.7851584397873,0 86.18432797940279,22.78458827189631,0 86.18455390749683,22.78401614474762,0 86.18487194981336,22.78333770756969,0 86.18525358848014,22.78260862224242,0 86.18547661813892,22.78204505946297,0 86.18567815771141,22.78163694655333,0 86.18594333462292,22.78132379256915,0 86.18611121221801,22.78099571987132,0 86.1863562939633,22.78087390204454,0 86.18634837599119,22.78038570069935,0 86.18643346196912,22.78016336528422,0 86.18669712987796,22.77962936172131,0 86.18675430919006,22.77924149005877,0 86.18675338941495,22.77863661252169,0 86.18675167762007,22.77852030415854,0 86.18674875502336,22.77828235253656,0 86.18669770406032,22.77796896177116,0 86.18686397475791,22.77768526828091,0 86.18699838266804,22.77753368021148,0 86.18716826165995,22.77750213101103,0 86.18804777308758,22.77694837324517,0 86.1891288010017,22.7762359685812,0 86.19010453426618,22.77568226658719,0 86.19033716060977,22.77559727362239,0 86.19107308186777,22.77518469729465,0 86.19164108581352,22.77564428132461,0 86.19179008671752,22.77584609171955,0 86.19198162632212,22.77611415434953,0 86.19236510721841,22.77563301010163,0 86.19261045247576,22.77534592869031,0 86.19280408535775,22.77502925876552,0 86.19308081952595,22.77429324792243,0 86.19291958999099,22.77407413283017,0 86.19298333329115,22.77397523735407,0 86.19407883679067,22.77338442652655,0 86.19439487381122,22.77295719574884,0 86.19473513682286,22.77247058528031,0 86.19544469341768,22.77183305997346,0 86.19602833293222,22.77144095607917,0 86.19607921864896,22.77150825515853,0 86.19729232958009,22.77080845154396,0 86.19789313435946,22.77052186793149,0 86.19800552542647,22.77068295575295,0 86.19880414108731,22.77041679430743,0 86.19999918937604,22.77003689144215,0 86.20015789683453,22.77026545776442,0 86.19991550720846,22.7704370085406,0 86.20000765506846,22.77058708326898,0 86.19987644025748,22.77069017102063,0 86.20022002162833,22.77118440313661,0 86.19977915410902,22.77161565160059,0 86.19775532759976,22.77309578090498,0 86.19857028251728,22.7743076868741,0 86.19878691175103,22.77445069635639,0 86.20112303456962,22.77343210338447,0 86.20126445331248,22.77375504199754,0 86.20212094581345,22.77321243654533,0 86.2034431370728,22.77510966145716,0 86.2024282223914,22.77572880664556,0 86.20291797865397,22.77653992078281,0 86.20233787284251,22.77692754347768,0 86.20289807432275,22.77900998482717,0 86.20322139690859,22.77950478784231,0 86.20451040140763,22.77970158647804,0 86.20582502460593,22.77940718466145,0 86.20612385209098,22.77928570716001,0 86.20627460454941,22.77904584227463,0 86.20637089769691,22.77888524374756,0 86.20614280447194,22.77881012879166,0 86.20601529800952,22.77855143277283,0 86.20604677058303,22.77849751393222,0 86.20635945543646,22.77845684917466,0 86.2065541524474,22.77845161384543,0 86.20686537854053,22.77837261572811,0 86.20727658037328,22.77828670218358,0 86.20760964746525,22.77819942503587,0 86.20828651721182,22.77806804377451,0 86.20937271692894,22.77781481498315,0 86.21183742614781,22.77776413372258,0 86.21162207365461,22.77878975967234,0 86.21135445592409,22.78029250339052,0 86.21133314914231,22.78052242609078,0 86.21130460819043,22.78070810864219,0 86.21129073075505,22.7808786647015,0 86.21131288007315,22.78101576932988,0 86.21136750681967,22.7811234551499,0 86.21159592457653,22.78137114750854,0 86.2118573341575,22.78155924731931,0 86.21192856564112,22.78165142439287,0 86.212020192377,22.7817693337274,0 86.21209794719948,22.78184670628362,0 86.21220747917398,22.78227400516014,0 86.2123243686917,22.78269916617076,0 86.21268142208991,22.78308689474252,0 86.21290599014209,22.78285617943414,0 86.21306208867966,22.78266016523456,0 86.21324903289802,22.7828177795479,0 86.21358572980238,22.78316679840259,0 86.21420753815778,22.78368383309872,0 86.21442402493524,22.78390539606503,0 86.2145203272986,22.78413842792254,0 86.2145583726514,22.78468925950342,0 86.21454810497043,22.78796009463822,0 86.21446775597295,22.78828353399923,0 86.21436943789018,22.78882716981937,0 86.21376344039196,22.79010890256384,0 86.21174242070386,22.79549177006141,0 86.21145128629469,22.79550603394405,0 86.21148003359258,22.79525910864822,0 86.21130509298655,22.79501695244936,0 86.21113580246943,22.79483949591859,0 86.21101562930167,22.79484874386941,0 86.21047187495603,22.79530307600527,0 86.21041698583797,22.79538406047192,0 86.21053668109761,22.79569425665321,0 86.21075096729037,22.79647031120678,0 86.21111460445269,22.79653976338826,0 86.21097594816118,22.79692988171264,0 86.21052543358215,22.79686551502682,0 86.21008448156218,22.79693924794637,0 86.21048312298419,22.79787999827812,0 86.20996237726274,22.79778244086095,0 86.2098807751796,22.79795388408696,0 86.20989094307502,22.79812831586667,0 86.20956332911126,22.79823373634003,0 86.20871578891672,22.79831147398443,0 86.20853478039852,22.7984160540352,0 86.20783859431981,22.79821059221511,0 86.20740659804223,22.79805872226977,0 86.20724308999934,22.79801919820776,0 86.20709322665299,22.79810348649355,0 86.20694588793683,22.7982888009526,0 86.20693824234165,22.7985442376877,0 86.20689845831352,22.79905391500515,0 86.20619778358883,22.79869178778885,0 86.20588486638077,22.79919373513497,0 86.20525515401667,22.79882298592656,0 86.20456100750999,22.79886211174476,0 86.20455105269973,22.79935686747615,0 86.20296261045408,22.79941845678932,0 86.20295123622465,22.79965694357904,0 86.20238438078989,22.79967516169003,0 86.20238261421575,22.80000977262364,0 86.20112973782575,22.80006138807953,0 86.19930734905661,22.79986844082358,0 86.1991577409583,22.79962550927567,0 86.19906669088111,22.79815807182546,0 86.19884550321599,22.79816349297344,0 86.19868951912956,22.79828993272055,0 86.19871741389332,22.79856039738997,0 86.19888597857718,22.79854672517881,0 86.19889706382841,22.79875546698061,0 86.19892081076212,22.79905825138251,0 86.19897488465944,22.79957814673947,0 86.19893533636575,22.79969292204377,0 86.19885316536129,22.79978274806533,0 86.1984859678104,22.79980339264384,0 86.19758250547488,22.79969793611627,0 86.19633464293219,22.79950701098181,0 86.19480099703466,22.79925225546431,0 86.19181574770185,22.79927595930347,0 86.19101443573255,22.79927699528689,0 86.19100471889712,22.79910935097915,0 86.19093412043112,22.79870499175165,0 86.18986475767832,22.79873238539067,0 86.18979705984945,22.79849473809958,0 86.18943534522862,22.79840098646708,0 86.18773861985055,22.79840623644921,0 86.18764794849204,22.7982802075693,0 86.18766903894171,22.79822167112832,0 86.18715719822539,22.79824657514015,0 86.18610487838275,22.79802312697568,0 86.18577378126616,22.79790209642048,0 86.18559548469874,22.79777005915403,0 86.18538500436688,22.7975916637573,0 86.18519619120467,22.79742461988578,0 86.18495279112118,22.79708428404247,0 86.18484996810648,22.79686880478688,0 86.18476513947699,22.79664652596334,0 86.18473678791304,22.79648623701133,0 
					</coordinates>
				</LinearRing>
			</outerBoundaryIs>
		</Polygon>
		<atom:link rel="app" href="https://www.google.com/earth/about/versions/#earth-pro" title="Google Earth Pro 7.3.6.10201"></atom:link>
	</Placemark>
</Document>
</kml>
